[
    {
        "Altitude(m)": 716353.2850362601,
        "Argument of Periapsis(deg)": 0.0034170363559881197,
        "Eccentricity": 0.0,
        "Inclination(deg)": 45.0,
        "Latitude(deg)": -41.44906393194403,
        "Longitude(deg)": -68.76058595801263,
        "Mean Anomaly(deg)": -111.08553500575579,
        "RAAN(deg)": 149.99677441756256,
        "Satellite Name": "Constellation 1 675",
        "Satellite Number": 675,
        "Semi-Major Axis(m)": 7083131.272910544,
        "Time(s)": 57
    },
    {
        "Altitude(m)": 716361.7674321912,
        "Argument of Periapsis(deg)": 0.003476984362233526,
        "Eccentricity": 0.0,
        "Inclination(deg)": 45.0,
        "Latitude(deg)": -41.46955113846306,
        "Longitude(deg)": -68.6888118939739,
        "Mean Anomaly(deg)": -111.02483386550587,
        "RAAN(deg)": 149.99671782839695,
        "Satellite Name": "Constellation 1 675",
        "Satellite Number": 675,
        "Semi-Major Axis(m)": 7083131.272910544,
        "Time(s)": 58
    },
    {
        "Altitude(m)": 716370.2290218816,
        "Argument of Periapsis(deg)": 0.003536932368478932,
        "Eccentricity": 0.0,
        "Inclination(deg)": 45.0,
        "Latitude(deg)": -41.489988177493096,
        "Longitude(deg)": -68.61699038205157,
        "Mean Anomaly(deg)": -110.9641327252559,
        "RAAN(deg)": 149.9966612392314,
        "Satellite Name": "Constellation 1 675",
        "Satellite Number": 675,
        "Semi-Major Axis(m)": 7083131.272910544,
        "Time(s)": 59
    },
    {
        "Altitude(m)": 716378.6697743182,
        "Argument of Periapsis(deg)": 0.003596880374724337,
        "Eccentricity": 0.0,
        "Inclination(deg)": 45.0,
        "Latitude(deg)": -41.51037498242179,
        "Longitude(deg)": -68.54512113870786,
        "Mean Anomaly(deg)": -110.90343158500609,
        "RAAN(deg)": 149.99660465006582,
        "Satellite Name": "Constellation 1 675",
        "Satellite Number": 675,
        "Semi-Major Axis(m)": 7083131.272910544,
        "Time(s)": 60
    },
    {
        "Altitude(m)": 716387.0896585655,
        "Argument of Periapsis(deg)": 0.0036568283809697427,
        "Eccentricity": 0.0,
        "Inclination(deg)": 45.0,
        "Latitude(deg)": -41.53071148669257,
        "Longitude(deg)": -68.47320438521997,
        "Mean Anomaly(deg)": -110.84273044475617,
        "RAAN(deg)": 149.99654806090027,
        "Satellite Name": "Constellation 1 675",
        "Satellite Number": 675,
        "Semi-Major Axis(m)": 7083131.272910544,
        "Time(s)": 61
    },
    {
        "Altitude(m)": 716395.4886437627,
        "Argument of Periapsis(deg)": 0.003716776387215149,
        "Eccentricity": 0.0,
        "Inclination(deg)": 45.0,
        "Latitude(deg)": -41.550997623804754,
        "Longitude(deg)": -68.40124017529294,
        "Mean Anomaly(deg)": -110.78202930450628,
        "RAAN(deg)": 149.99649147173471,
        "Satellite Name": "Constellation 1 675",
        "Satellite Number": 675,
        "Semi-Major Axis(m)": 7083131.272910544,
        "Time(s)": 62
    },
    {
        "Altitude(m)": 716403.8666991084,
        "Argument of Periapsis(deg)": 0.003776724393460554,
        "Eccentricity": 0.0,
        "Inclination(deg)": 45.0,
        "Latitude(deg)": -41.57123332731471,
        "Longitude(deg)": -68.32922856315689,
        "Mean Anomaly(deg)": -110.72132816425636,
        "RAAN(deg)": 149.9964348825691,
        "Satellite Name": "Constellation 1 675",
        "Satellite Number": 675,
        "Semi-Major Axis(m)": 7083131.272910544,
        "Time(s)": 63
    },
    {
        "Altitude(m)": 716412.2237939012,
        "Argument of Periapsis(deg)": 0.003836672399705959,
        "Eccentricity": 0.0,
        "Inclination(deg)": 45.0,
        "Latitude(deg)": -41.59141853083645,
        "Longitude(deg)": -68.25716960356851,
        "Mean Anomaly(deg)": -110.66062702400652,
        "RAAN(deg)": 149.99637829340355,
        "Satellite Name": "Constellation 1 675",
        "Satellite Number": 675,
        "Semi-Major Axis(m)": 7083131.272910544,
        "Time(s)": 64
    },
    {
        "Altitude(m)": 716420.5598974957,
        "Argument of Periapsis(deg)": 0.003896620405951365,
        "Eccentricity": 0.0,
        "Inclination(deg)": 45.0,
        "Latitude(deg)": -41.61155316804261,
        "Longitude(deg)": -68.18506335181107,
        "Mean Anomaly(deg)": -110.59992588375655,
        "RAAN(deg)": 149.996321704238,
        "Satellite Name": "Constellation 1 675",
        "Satellite Number": 675,
        "Semi-Major Axis(m)": 7083131.272910544,
        "Time(s)": 65
    },
    {
        "Altitude(m)": 716428.8749793315,
        "Argument of Periapsis(deg)": 0.003956568412196771,
        "Eccentricity": 0.0,
        "Inclination(deg)": 45.0,
        "Latitude(deg)": -41.631637172665016,
        "Longitude(deg)": -68.1129098636964,
        "Mean Anomaly(deg)": -110.53922474350667,
        "RAAN(deg)": 149.99626511507242,
        "Satellite Name": "Constellation 1 675",
        "Satellite Number": 675,
        "Semi-Major Axis(m)": 7083131.272910544,
        "Time(s)": 66
    },
    {
        "Altitude(m)": 716437.1690089146,
        "Argument of Periapsis(deg)": 0.004016516418442176,
        "Eccentricity": 0.0,
        "Inclination(deg)": 45.0,
        "Latitude(deg)": -41.651670478495845,
        "Longitude(deg)": -68.04070936366193,
        "Mean Anomaly(deg)": -110.47852360325678,
        "RAAN(deg)": 149.99620852590687,
        "Satellite Name": "Constellation 1 675",
        "Satellite Number": 675,
        "Semi-Major Axis(m)": 7083131.272910544,
        "Time(s)": 67
    },
    {
        "Altitude(m)": 716445.4419558437,
        "Argument of Periapsis(deg)": 0.004076464424687581,
        "Eccentricity": 0.0,
        "Inclination(deg)": 45.0,
        "Latitude(deg)": -41.67165301938786,
        "Longitude(deg)": -67.96846157238286,
        "Mean Anomaly(deg)": -110.41782246300684,
        "RAAN(deg)": 149.99615193674126,
        "Satellite Name": "Constellation 1 675",
        "Satellite Number": 675,
        "Semi-Major Axis(m)": 7083131.272910544,
        "Time(s)": 68
    },
    {
        "Altitude(m)": 716453.6937897716,
        "Argument of Periapsis(deg)": 0.004136412430932987,
        "Eccentricity": 0.0,
        "Inclination(deg)": 45.0,
        "Latitude(deg)": -41.691584729255794,
        "Longitude(deg)": -67.89616671535688,
        "Mean Anomaly(deg)": -110.35712132275701,
        "RAAN(deg)": 149.9960953475757,
        "Satellite Name": "Constellation 1 675",
        "Satellite Number": 675,
        "Semi-Major Axis(m)": 7083131.272910544,
        "Time(s)": 69
    },
    {
        "Altitude(m)": 716461.9244804448,
        "Argument of Periapsis(deg)": 0.004196360437178394,
        "Eccentricity": 0.0,
        "Inclination(deg)": 45.0,
        "Latitude(deg)": -41.71146554207689,
        "Longitude(deg)": -67.823824850515,
        "Mean Anomaly(deg)": -110.29642018250706,
        "RAAN(deg)": 149.99603875841015,
        "Satellite Name": "Constellation 1 675",
        "Satellite Number": 675,
        "Semi-Major Axis(m)": 7083131.272910544,
        "Time(s)": 70
    },
    {
        "Altitude(m)": 716470.133997674,
        "Argument of Periapsis(deg)": 0.004256308443423799,
        "Eccentricity": 0.0,
        "Inclination(deg)": 45.0,
        "Latitude(deg)": -41.731295391891614,
        "Longitude(deg)": -67.7514360363207,
        "Mean Anomaly(deg)": -110.23571904225716,
        "RAAN(deg)": 149.99598216924457,
        "Satellite Name": "Constellation 1 675",
        "Satellite Number": 675,
        "Semi-Major Axis(m)": 7083131.272910544,
        "Time(s)": 71
    },
    {
        "Altitude(m)": 716478.3223113518,
        "Argument of Periapsis(deg)": 0.004316256449669204,
        "Eccentricity": 0.0,
        "Inclination(deg)": 45.0,
        "Latitude(deg)": -41.75107421280468,
        "Longitude(deg)": -67.67900033176986,
        "Mean Anomaly(deg)": -110.17501790200727,
        "RAAN(deg)": 149.99592558007902,
        "Satellite Name": "Constellation 1 675",
        "Satellite Number": 675,
        "Semi-Major Axis(m)": 7083131.272910544,
        "Time(s)": 72
    },
    {
        "Altitude(m)": 716486.4893914466,
        "Argument of Periapsis(deg)": 0.00437620445591461,
        "Eccentricity": 0.0,
        "Inclination(deg)": 45.0,
        "Latitude(deg)": -41.77080193898569,
        "Longitude(deg)": -67.60651779639203,
        "Mean Anomaly(deg)": -110.11431676175738,
        "RAAN(deg)": 149.99586899091344,
        "Satellite Name": "Constellation 1 675",
        "Satellite Number": 675,
        "Semi-Major Axis(m)": 7083131.272910544,
        "Time(s)": 73
    },
    {
        "Altitude(m)": 716494.6352080012,
        "Argument of Periapsis(deg)": 0.004436152462160016,
        "Eccentricity": 0.0,
        "Inclination(deg)": 45.0,
        "Latitude(deg)": -41.79047850467011,
        "Longitude(deg)": -67.533988658348,
        "Mean Anomaly(deg)": -110.0536156215075,
        "RAAN(deg)": 149.99581240174786,
        "Satellite Name": "Constellation 1 675",
        "Satellite Number": 675,
        "Semi-Major Axis(m)": 7083131.272910544,
        "Time(s)": 74
    },
    {
        "Altitude(m)": 716502.7597311399,
        "Argument of Periapsis(deg)": 0.0044961004684054215,
        "Eccentricity": 0.0,
        "Inclination(deg)": 45.0,
        "Latitude(deg)": -41.81010384415978,
        "Longitude(deg)": -67.46141264204164,
        "Mean Anomaly(deg)": -109.99291448125753,
        "RAAN(deg)": 149.9957558125823,
        "Satellite Name": "Constellation 1 675",
        "Satellite Number": 675,
        "Semi-Major Axis(m)": 7083131.272910544,
        "Time(s)": 75
    }
]